{
  "type": "FeatureCollection",
  "features": [
    {
      "type": "Feature",
      "properties": {
        "norad_id": 66690,
        "name": "TRANSPORTER-15AA",
        "group": "last-30-days",
        "lat": -80.62447957436703,
        "lon": -160.491570144213,
        "alt_km": 519.8372760435695,
        "timestamp": "2025-12-26T07:29:17.192300+00:00",
        "meta_object_name": "TRANSPORTER-15AA",
        "meta_object_id": "2025-276AA",
        "meta_epoch": "2025-12-25T22:24:42.111072",
        "meta_mean_motion": 15.17096692,
        "meta_eccentricity": 0.00036444,
        "meta_inclination": 97.4388,
        "meta_ra_of_asc_node": 71.4474,
        "meta_arg_of_pericenter": 233.4322,
        "meta_mean_anomaly": 126.6576,
        "meta_ephemeris_type": 0,
        "meta_classification_type": "U",
        "meta_norad_cat_id": 66690,
        "meta_element_set_no": 999,
        "meta_rev_at_epoch": 412,
        "meta_bstar": 0.00044769279,
        "meta_mean_motion_dot": 8.809e-05,
        "meta_mean_motion_ddot": 0,
        "tle_line1": "1 66690U 25276AA  25359.93382073  .00008809  00000+0  44769-3 0  9995",
        "tle_line2": "2 66690  97.4388  71.4474 0003644 233.4322 126.6576 15.17096692  4127"
      },
      "geometry": {
        "type": "Point",
        "coordinates": [
          -160.491570144213,
          -80.62447957436703
        ]
      }
    },
    {
      "type": "Feature",
      "properties": {
        "norad_id": 66691,
        "name": "TRANSPORTER-15AB",
        "group": "last-30-days",
        "lat": -78.83222160023644,
        "lon": 113.28856490341452,
        "alt_km": 519.3070049217085,
        "timestamp": "2025-12-26T07:29:17.192310+00:00",
        "meta_object_name": "TRANSPORTER-15AB",
        "meta_object_id": "2025-276AB",
        "meta_epoch": "2025-12-25T22:21:04.814208",
        "meta_mean_motion": 15.17360742,
        "meta_eccentricity": 0.00037875,
        "meta_inclination": 97.4413,
        "meta_ra_of_asc_node": 71.4587,
        "meta_arg_of_pericenter": 234.7256,
        "meta_mean_anomaly": 125.3623,
        "meta_ephemeris_type": 0,
        "meta_classification_type": "U",
        "meta_norad_cat_id": 66691,
        "meta_element_set_no": 999,
        "meta_rev_at_epoch": 412,
        "meta_bstar": 0.00051272807,
        "meta_mean_motion_dot": 0.00010177,
        "meta_mean_motion_ddot": 0,
        "tle_line1": "1 66691U 25276AB  25359.93130572  .00010177  00000+0  51273-3 0  9990",
        "tle_line2": "2 66691  97.4413  71.4587 0003787 234.7256 125.3623 15.17360742  4129"
      },
      "geometry": {
        "type": "Point",
        "coordinates": [
          113.28856490341452,
          -78.83222160023644
        ]
      }
    },
    {
      "type": "Feature",
      "properties": {
        "norad_id": 66692,
        "name": "TRANSPORTER-15AC",
        "group": "last-30-days",
        "lat": -62.54862205185088,
        "lon": 86.41612961191579,
        "alt_km": 519.9772222700076,
        "timestamp": "2025-12-26T07:29:17.192321+00:00",
        "meta_object_name": "TRANSPORTER-15AC",
        "meta_object_id": "2025-276AC",
        "meta_epoch": "2025-12-25T22:16:18.691104",
        "meta_mean_motion": 15.17443615,
        "meta_eccentricity": 0.00017788,
        "meta_inclination": 97.4414,
        "meta_ra_of_asc_node": 71.4667,
        "meta_arg_of_pericenter": 248.2048,
        "meta_mean_anomaly": 111.8997,
        "meta_ephemeris_type": 0,
        "meta_classification_type": "U",
        "meta_norad_cat_id": 66692,
        "meta_element_set_no": 999,
        "meta_rev_at_epoch": 412,
        "meta_bstar": 0.00031442701,
        "meta_mean_motion_dot": 6.226e-05,
        "meta_mean_motion_ddot": 0,
        "tle_line1": "1 66692U 25276AC  25359.92799411  .00006226  00000+0  31443-3 0  9990",
        "tle_line2": "2 66692  97.4414  71.4667 0001778 248.2048 111.8997 15.17443615  4122"
      },
      "geometry": {
        "type": "Point",
        "coordinates": [
          86.41612961191579,
          -62.54862205185088
        ]
      }
    },
    {
      "type": "Feature",
      "properties": {
        "norad_id": 66693,
        "name": "TRANSPORTER-15AD",
        "group": "last-30-days",
        "lat": -60.135779019367824,
        "lon": 84.97298226375197,
        "alt_km": 518.211704971277,
        "timestamp": "2025-12-26T07:29:17.192331+00:00",
        "meta_object_name": "TRANSPORTER-15AD",
        "meta_object_id": "2025-276AD",
        "meta_epoch": "2025-12-25T22:15:44.528544",
        "meta_mean_motion": 15.17703013,
        "meta_eccentricity": 0.00032342,
        "meta_inclination": 97.4368,
        "meta_ra_of_asc_node": 71.4463,
        "meta_arg_of_pericenter": 260.5811,
        "meta_mean_anomaly": 99.5057,
        "meta_ephemeris_type": 0,
        "meta_classification_type": "U",
        "meta_norad_cat_id": 66693,
        "meta_element_set_no": 999,
        "meta_rev_at_epoch": 412,
        "meta_bstar": 0.00078397022,
        "meta_mean_motion_dot": 0.00015761,
        "meta_mean_motion_ddot": 0,
        "tle_line1": "1 66693U 25276AD  25359.92759871  .00015761  00000+0  78397-3 0  9990",
        "tle_line2": "2 66693  97.4368  71.4463 0003234 260.5811  99.5057 15.17703013  4129"
      },
      "geometry": {
        "type": "Point",
        "coordinates": [
          84.97298226375197,
          -60.135779019367824
        ]
      }
    },
    {
      "type": "Feature",
      "properties": {
        "norad_id": 66694,
        "name": "YAM-9",
        "group": "last-30-days",
        "lat": -51.51168092711853,
        "lon": 81.30537197100733,
        "alt_km": 520.1056544108342,
        "timestamp": "2025-12-26T07:29:17.192344+00:00",
        "meta_object_name": "YAM-9",
        "meta_object_id": "2025-276AE",
        "meta_epoch": "2025-12-25T20:38:25.689120",
        "meta_mean_motion": 15.17620234,
        "meta_eccentricity": 0.00015785,
        "meta_inclination": 97.4414,
        "meta_ra_of_asc_node": 71.3997,
        "meta_arg_of_pericenter": 214.1338,
        "meta_mean_anomaly": 145.9794,
        "meta_ephemeris_type": 0,
        "meta_classification_type": "U",
        "meta_norad_cat_id": 66694,
        "meta_element_set_no": 999,
        "meta_rev_at_epoch": 411,
        "meta_bstar": 0.00037530605,
        "meta_mean_motion_dot": 7.484e-05,
        "meta_mean_motion_ddot": 0,
        "tle_line1": "1 66694U 25276AE  25359.86001955  .00007484  00000+0  37531-3 0  9995",
        "tle_line2": "2 66694  97.4414  71.3997 0001578 214.1338 145.9794 15.17620234  4117"
      },
      "geometry": {
        "type": "Point",
        "coordinates": [
          81.30537197100733,
          -51.51168092711853
        ]
      }
    },
    {
      "type": "Feature",
      "properties": {
        "norad_id": 66695,
        "name": "IRIDE FM1",
        "group": "last-30-days",
        "lat": 13.945739498892435,
        "lon": 70.00893533442864,
        "alt_km": 512.7645672140325,
        "timestamp": "2025-12-26T07:29:17.192356+00:00",
        "meta_object_name": "IRIDE FM1",
        "meta_object_id": "2025-276AF",
        "meta_epoch": "2025-12-25T22:00:01.999584",
        "meta_mean_motion": 15.18319825,
        "meta_eccentricity": 0.00017224,
        "meta_inclination": 97.4394,
        "meta_ra_of_asc_node": 71.4796,
        "meta_arg_of_pericenter": 141.5484,
        "meta_mean_anomaly": 233.2696,
        "meta_ephemeris_type": 0,
        "meta_classification_type": "U",
        "meta_norad_cat_id": 66695,
        "meta_element_set_no": 999,
        "meta_rev_at_epoch": 130,
        "meta_bstar": -0.0010805014,
        "meta_mean_motion_dot": -0.00022153,
        "meta_mean_motion_ddot": 0,
        "tle_line1": "1 66695U 25276AF  25359.91668981 -.00022153  00000+0 -10805-2 0  9996",
        "tle_line2": "2 66695  97.4394  71.4796 0001722 141.5484 233.2696 15.18319825  1301"
      },
      "geometry": {
        "type": "Point",
        "coordinates": [
          70.00893533442864,
          13.945739498892435
        ]
      }
    },
    {
      "type": "Feature",
      "properties": {
        "norad_id": 66696,
        "name": "IRIDE FM2",
        "group": "last-30-days",
        "lat": -66.20738668409828,
        "lon": 89.06449697275306,
        "alt_km": 519.5160955298416,
        "timestamp": "2025-12-26T07:29:17.192366+00:00",
        "meta_object_name": "IRIDE FM2",
        "meta_object_id": "2025-276AG",
        "meta_epoch": "2025-12-25T22:17:19.718880",
        "meta_mean_motion": 15.1745548,
        "meta_eccentricity": 0.00024704,
        "meta_inclination": 97.4384,
        "meta_ra_of_asc_node": 71.451,
        "meta_arg_of_pericenter": 251.8059,
        "meta_mean_anomaly": 108.2906,
        "meta_ephemeris_type": 0,
        "meta_classification_type": "U",
        "meta_norad_cat_id": 66696,
        "meta_element_set_no": 999,
        "meta_rev_at_epoch": 412,
        "meta_bstar": 0.00042950674,
        "meta_mean_motion_dot": 8.535e-05,
        "meta_mean_motion_ddot": 0,
        "tle_line1": "1 66696U 25276AG  25359.92870045  .00008535  00000+0  42951-3 0  9998",
        "tle_line2": "2 66696  97.4384  71.4510 0002470 251.8059 108.2906 15.17455480  4124"
      },
      "geometry": {
        "type": "Point",
        "coordinates": [
          89.06449697275306,
          -66.20738668409828
        ]
      }
    }
  ]
}